{
    "links": {
        "self": "http://www.neowsapp.com/rest/v1/neo/3553151?api_key=iIulBulltgU6a56xZRHN4H3l9WmuAYTsLGpBGhQ2"
    },
    "id": "3553151",
    "neo_reference_id": "3553151",
    "name": "(2010 XE11)",
    "designation": "2010 XE11",
    "nasa_jpl_url": "http://ssd.jpl.nasa.gov/sbdb.cgi?sstr=3553151",
    "absolute_magnitude_h": 23.0,
    "estimated_diameter": {
        "kilometers": {
            "estimated_diameter_min": 0.0667659413,
            "estimated_diameter_max": 0.1492931834
        },
        "meters": {
            "estimated_diameter_min": 66.7659413495,
            "estimated_diameter_max": 149.2931834393
        },
        "miles": {
            "estimated_diameter_min": 0.0414864197,
            "estimated_diameter_max": 0.0927664547
        },
        "feet": {
            "estimated_diameter_min": 219.0483710172,
            "estimated_diameter_max": 489.807047955
        }
    },
    "is_potentially_hazardous_asteroid": false,
    "close_approach_data": [
        {
            "close_approach_date": "1903-10-14",
            "close_approach_date_full": "1903-Oct-14 15:33",
            "epoch_date_close_approach": -2089614420000,
            "relative_velocity": {
                "kilometers_per_second": "13.6574858081",
                "kilometers_per_hour": "49166.9489091391",
                "miles_per_hour": "30550.4300041259"
            },
            "miss_distance": {
                "astronomical": "0.3904478193",
                "lunar": "151.8842017077",
                "kilometers": "58410162.113424891",
                "miles": "36294391.7439738558"
            },
            "orbiting_body": "Earth"
        },
        {
            "close_approach_date": "1911-12-21",
            "close_approach_date_full": "1911-Dec-21 21:56",
            "epoch_date_close_approach": -1831255440000,
            "relative_velocity": {
                "kilometers_per_second": "13.9577116508",
                "kilometers_per_hour": "50247.7619428192",
                "miles_per_hour": "31222.0051916367"
            },
            "miss_distance": {
                "astronomical": "0.288433392",
                "lunar": "112.200589488",
                "kilometers": "43149021.08007504",
                "miles": "26811558.430673952"
            },
            "orbiting_body": "Earth"
        },
        {
            "close_approach_date": "1924-12-11",
            "close_approach_date_full": "1924-Dec-11 10:22",
            "epoch_date_close_approach": -1421847480000,
            "relative_velocity": {
                "kilometers_per_second": "10.1738220762",
                "kilometers_per_hour": "36625.7594744665",
                "miles_per_hour": "22757.8226023428"
            },
            "miss_distance": {
                "astronomical": "0.1232824394",
                "lunar": "47.9568689266",
                "kilometers": "18442790.342644078",
                "miles": "11459818.5200731564"
            },
            "orbiting_body": "Earth"
        },
        {
            "close_approach_date": "1937-12-03",
            "close_approach_date_full": "1937-Dec-03 14:56",
            "epoch_date_close_approach": -1012295040000,
            "relative_velocity": {
                "kilometers_per_second": "8.4495208738",
                "kilometers_per_hour": "30418.2751455433",
                "miles_per_hour": "18900.7332425183"
            },
            "miss_distance": {
                "astronomical": "0.0345961035",
                "lunar": "13.4578842615",
                "kilometers": "5175503.393899545",
                "miles": "3215908.685301921"
            },
            "orbiting_body": "Earth"
        },
        {
            "close_approach_date": "2010-12-03",
            "close_approach_date_full": "2010-Dec-03 03:23",
            "epoch_date_close_approach": 1291346580000,
            "relative_velocity": {
                "kilometers_per_second": "8.3398023011",
                "kilometers_per_hour": "30023.2882839971",
                "miles_per_hour": "18655.3037673537"
            },
            "miss_distance": {
                "astronomical": "0.0345138535",
                "lunar": "13.4258890115",
                "kilometers": "5163198.969092045",
                "miles": "3208263.070258421"
            },
            "orbiting_body": "Earth"
        }
    ],
    "orbital_data": {
        "orbit_id": "14",
        "orbit_determination_date": "2017-04-06 08:55:19",
        "first_observation_date": "2010-12-04",
        "last_observation_date": "2010-12-19",
        "data_arc_in_days": 15,
        "observations_used": 88,
        "orbit_uncertainty": "7",
        "minimum_orbit_intersection": ".0340845",
        "jupiter_tisserand_invariant": "4.733",
        "epoch_osculation": "2459000.5",
        "eccentricity": ".2699366319607286",
        "semi_major_axis": "1.380597421995162",
        "inclination": "13.65865412497511",
        "ascending_node_longitude": "73.67929289495305",
        "orbital_period": "592.5145424974106",
        "perihelion_distance": "1.007923603808124",
        "perihelion_argument": "340.11408518",
        "aphelion_distance": "1.753271240182201",
        "perihelion_time": "2459072.971014863569",
        "mean_anomaly": "315.9680590438863",
        "mean_motion": ".6075800240828237",
        "equinox": "J2000",
        "orbit_class": {
            "orbit_class_type": "APO",
            "orbit_class_description": "Near-Earth asteroid orbits which cross the Earth’s orbit similar to that of 1862 Apollo",
            "orbit_class_range": "a (semi-major axis) > 1.0 AU; q (perihelion) < 1.017 AU"
        }
    },
    "is_sentry_object": false
}